     2.12           N: GNSS NAV DATA    E: GALILEO          RINEX VERSION / TYPE
GS10 V12.00                             30-NOV-23 23:59     PGM / RUN BY / DATE
GAL    1.2650D+02 -7.1875D-01  8.0872D-03  0.0000D+00       IONOSPHERIC CORR
GAUT -1.8626451492D-09 8.881784197D-16 345600 2290          TIME SYSTEM CORR
GPGA  1.0477378964D-09 1.065814104D-14 432000 2290          TIME SYSTEM CORR
    18    18  1929     7                                    LEAP SECONDS
                                                            END OF HEADER
E26 2023 12 01 03 40 00 2.965955063701D-04 1.114131009672D-11 0.000000000000D+00
     1.020000000000D+02 3.034375000000D+01 2.953694461802D-09 2.882078015649D+00
     1.475214958191D-06 3.493219846860D-04-1.365318894386D-06 5.440603996277D+03
     4.452000000000D+05 5.587935447693D-08-1.007024087670D+00-4.470348358154D-08
     9.931125369520D-01 3.838125000000D+02-1.930921587389D+00-5.861315575892D-09
     4.857345185067D-11 2.580000000000D+02 2.290000000000D+03 0.000000000000D+00
     3.120000000000D+00 0.000000000000D+00-4.889443516731D-09 0.000000000000D+00
     4.459000000000D+05
E03 2023 12 01 03 40 00-7.707881741226D-05-2.657429831743D-12 0.000000000000D+00
     1.020000000000D+02-5.406250000000D+01 2.945836991649D-09 4.531698011412D-02
    -2.464279532433D-06 3.120136680081D-04 1.027435064316D-05 5.440607772827D+03
     4.452000000000D+05-1.192092895508D-07 1.085944369210D+00-8.195638656616D-08
     9.596274495466D-01 1.214687500000D+02 1.169540827430D+00-5.239861118391D-09
     4.400183285296D-10 2.580000000000D+02 2.290000000000D+03 0.000000000000D+00
     3.120000000000D+00 0.000000000000D+00 3.958120942116D-09 0.000000000000D+00
     4.459000000000D+05
E26 2023 12 01 03 50 00 2.966012689285D-04 1.114131009672D-11 0.000000000000D+00
     1.030000000000D+02 3.040625000000D+01 2.961551931954D-09 2.956235448467D+00
     1.477077603340D-06 3.495229175314D-04-1.432374119759D-06 5.440603567123D+03
     4.458000000000D+05 5.401670932770D-08-1.007027645486D+00-3.352761268616D-08
     9.931125340262D-01 3.855625000000D+02-1.930693519923D+00-5.861315575892D-09
     5.571660653459D-11 5.170000000000D+02 2.290000000000D+03 0.000000000000D+00
     3.120000000000D+00 0.000000000000D+00-4.889443516731D-09-5.355104804039D-09
     4.464640000000D+05
E07 2023 12 01 03 50 00-9.065715130419D-05-2.046363078989D-12 0.000000000000D+00
     1.030000000000D+02-7.393750000000D+01 3.065841990339D-09-9.899547273366D-01
    -3.479421138763D-06 1.038671471179D-04 1.060031354427D-05 5.440611051559D+03
     4.458000000000D+05-1.676380634308D-08 1.085997929567D+00 3.352761268616D-08
     9.596676944229D-01 1.100312500000D+02 7.207490734291D-01-5.331650656079D-09
     4.900204113170D-10 5.170000000000D+02 2.290000000000D+03 0.000000000000D+00
     3.120000000000D+00 0.000000000000D+00 5.587935447693D-09 6.053596735001D-09
     4.464640000000D+05
E03 2023 12 01 03 50 00-7.708050543442D-05-2.671640686458D-12 0.000000000000D+00
     1.030000000000D+02-5.290625000000D+01 2.960480458751D-09 1.202459895738D-01
    -2.423301339149D-06 3.118054009974D-04 1.021102070808D-05 5.440607240677D+03
     4.458000000000D+05-1.005828380585D-07 1.085941336581D+00-9.872019290924D-08
     9.596277640739D-01 1.233125000000D+02 1.168997021281D+00-5.244861326670D-09
     4.257320191617D-10 5.170000000000D+02 2.290000000000D+03 0.000000000000D+00
     3.120000000000D+00 0.000000000000D+00 3.958120942116D-09 4.190951585770D-09
     4.464640000000D+05
E13 2023 12 01 03 50 00-1.962803071365D-05-1.421085471520D-14 0.000000000000D+00
     1.030000000000D+02 2.546875000000D+01 2.861904924113D-09-2.949408499868D+00
     1.255422830582D-06 2.976342802867D-04-1.680105924606D-06 5.440606410980D+03
     4.458000000000D+05-4.097819328308D-08-1.007833435394D+00 1.117587089539D-08
     9.997905678045D-01 3.941562500000D+02-1.501226776235D+00-5.787383924913D-09
     9.643258823294D-11 5.170000000000D+02 2.290000000000D+03 0.000000000000D+00
     3.120000000000D+00 0.000000000000D+00 4.190951585770D-09 4.423782229424D-09
     4.464640000000D+05
E31 2023 12 01 03 50 00-1.091434387490D-05-6.110667527537D-13 0.000000000000D+00
     1.030000000000D+02 3.853125000000D+01 2.936908048294D-09 2.275404144379D+00
     1.689419150352D-06 2.185509074479D-04 9.190291166306D-06 5.440616619110D+03
     4.458000000000D+05 7.450580596924D-09-3.098349217950D+00-3.166496753693D-08
     9.680226682697D-01 1.440312500000D+02-7.219436513709D-01-5.293791936254D-09
    -4.985921969377D-10 5.170000000000D+02 2.290000000000D+03 0.000000000000D+00
     3.120000000000D+00 0.000000000000D+00 5.355104804039D-09 5.820766091347D-09
     4.464640000000D+05
E13 2023 12 01 03 50 00-1.962785609066D-05-1.421085471520D-14 0.000000000000D+00
     1.030000000000D+02 2.546875000000D+01 2.861904924113D-09-2.949408499868D+00
     1.255422830582D-06 2.976342802867D-04-1.680105924606D-06 5.440606410980D+03
     4.458000000000D+05-4.097819328308D-08-1.007833435394D+00 1.117587089539D-08
     9.997905678045D-01 3.941562500000D+02-1.501226776235D+00-5.787383924913D-09
     9.643258823294D-11 2.580000000000D+02 2.290000000000D+03 0.000000000000D+00
     3.120000000000D+00 0.000000000000D+00 4.190951585770D-09 0.000000000000D+00
     4.465000000000D+05
E07 2023 12 01 03 50 00-9.065720951185D-05-2.046363078989D-12 0.000000000000D+00
     1.030000000000D+02-7.393750000000D+01 3.065841990339D-09-9.899547273366D-01
    -3.479421138763D-06 1.038671471179D-04 1.060031354427D-05 5.440611051559D+03
     4.458000000000D+05-1.676380634308D-08 1.085997929567D+00 3.352761268616D-08
     9.596676944229D-01 1.100312500000D+02 7.207490734291D-01-5.331650656079D-09
     4.900204113170D-10 2.580000000000D+02 2.290000000000D+03 0.000000000000D+00
     3.120000000000D+00 0.000000000000D+00 5.587935447693D-09 0.000000000000D+00
     4.465000000000D+05
E31 2023 12 01 03 50 00-1.091463491321D-05-6.252776074689D-13 0.000000000000D+00
     1.030000000000D+02 3.853125000000D+01 2.936908048294D-09 2.275404144379D+00
     1.689419150352D-06 2.185509074479D-04 9.190291166306D-06 5.440616619110D+03
     4.458000000000D+05 7.450580596924D-09-3.098349217950D+00-3.166496753693D-08
     9.680226682697D-01 1.440312500000D+02-7.219436513709D-01-5.293791936254D-09
    -4.985921969377D-10 2.580000000000D+02 2.290000000000D+03 0.000000000000D+00
     3.120000000000D+00 0.000000000000D+00 5.355104804039D-09 0.000000000000D+00
     4.465000000000D+05
E26 2023 12 01 03 50 00 2.966021420434D-04 1.114131009672D-11 0.000000000000D+00
     1.030000000000D+02 3.040625000000D+01 2.961551931954D-09 2.956235448467D+00
     1.477077603340D-06 3.495229175314D-04-1.432374119759D-06 5.440603567123D+03
     4.458000000000D+05 5.401670932770D-08-1.007027645486D+00-3.352761268616D-08
     9.931125340262D-01 3.855625000000D+02-1.930693519923D+00-5.861315575892D-09
     5.571660653459D-11 2.580000000000D+02 2.290000000000D+03 0.000000000000D+00
     3.120000000000D+00 0.000000000000D+00-4.889443516731D-09 0.000000000000D+00
     4.465000000000D+05
E03 2023 12 01 03 50 00-7.708038901910D-05-2.671640686458D-12 0.000000000000D+00
     1.030000000000D+02-5.290625000000D+01 2.960480458751D-09 1.202459895738D-01
    -2.423301339149D-06 3.118054009974D-04 1.021102070808D-05 5.440607240677D+03
     4.458000000000D+05-1.005828380585D-07 1.085941336581D+00-9.872019290924D-08
     9.596277640739D-01 1.233125000000D+02 1.168997021281D+00-5.244861326670D-09
     4.257320191617D-10 2.580000000000D+02 2.290000000000D+03 0.000000000000D+00
     3.120000000000D+00 0.000000000000D+00 3.958120942116D-09 0.000000000000D+00
     4.465000000000D+05
E26 2023 12 01 04 00 00 2.966078463942D-04 1.112709924200D-11 0.000000000000D+00
     1.040000000000D+02 3.071875000000D+01 2.968337928904D-09 3.030371502200D+00
     1.490116119385D-06 3.497005673125D-04-1.493841409683D-06 5.440603174210D+03
     4.464000000000D+05 5.215406417847D-08-1.007031207692D+00-2.048909664154D-08
     9.931125354891D-01 3.871250000000D+02-1.930444033874D+00-5.860244102689D-09
     6.285976121851D-11 5.170000000000D+02 2.290000000000D+03 0.000000000000D+00
     3.120000000000D+00 0.000000000000D+00-4.889443516731D-09-5.355104804039D-09
     4.470640000000D+05
E07 2023 12 01 04 00 00-9.065831545740D-05-2.046363078989D-12 0.000000000000D+00
     1.040000000000D+02-7.396875000000D+01 3.067984936744D-09-9.155113320703D-01
    -3.475695848465D-06 1.038738992065D-04 1.058913767338D-05 5.440611066818D+03
     4.464000000000D+05-1.676380634308D-08 1.085994731628D+00 3.352761268616D-08
     9.596679840807D-01 1.101250000000D+02 7.206910950598D-01-5.332364971548D-09
     4.903775690512D-10 5.170000000000D+02 2.290000000000D+03 0.000000000000D+00
     3.120000000000D+00 0.000000000000D+00 5.587935447693D-09 6.053596735001D-09
     4.470640000000D+05
E03 2023 12 01 04 00 00-7.708213524893D-05-2.685851541173D-12 0.000000000000D+00
     1.040000000000D+02-5.162500000000D+01 2.974766768119D-09 1.951642963249D-01
    -2.380460500717D-06 3.116319421679D-04 1.016072928905D-05 5.440606763840D+03
     4.464000000000D+05-8.009374141693D-08 1.085938303952D+00-1.098960638046D-07
     9.596280625092D-01 1.247812500000D+02 1.168463966117D+00-5.250933008151D-09
     4.121600252623D-10 5.170000000000D+02 2.290000000000D+03 0.000000000000D+00
     3.120000000000D+00 0.000000000000D+00 3.958120942116D-09 4.190951585770D-09
     4.470640000000D+05
